H1 CPF  1  DLR 2021 05 14 10  6342 technosat            
H2  1704205 6203    42829 2021 05 14 00 00 00 2021 05 21 00 00 00    60 1 1  0 0 0
H9
10 0 59354  43200.000000  0      -3962360.354       3330787.866       4667639.075
10 0 59354  43260.000000  0      -4116020.954       3594929.029       4326208.550
10 0 59354  43320.000000  0      -4250094.665       3845187.682       3966423.961
10 0 59354  43380.000000  0      -4364136.206       4080329.631       3589804.689
10 0 59354  43440.000000  0      -4457795.273       4299180.421       3197943.202
10 0 59354  43500.000000  0      -4530817.655       4500631.386       2792498.337
10 0 59354  43560.000000  0      -4583045.906       4683645.444       2375188.255
10 0 59354  43620.000000  0      -4614419.565       4847262.567       1947783.059
10 0 59354  43680.000000  0      -4624974.889       4990604.898       1512097.147
10 0 59354  43740.000000  0      -4614844.128       5112881.500       1069981.360
10 0 59354  43800.000000  0      -4584254.341       5213392.731        623314.928
10 0 59354  43860.000000  0      -4533525.755       5291534.219        173997.249
10 0 59354  43920.000000  0      -4463069.630       5346800.433       -276060.481
10 0 59354  43980.000000  0      -4373385.671       5378787.780       -724943.783
10 0 59354  44040.000000  0      -4265058.895       5387197.030      -1170743.509
10 0 59354  44100.000000  0      -4138756.072       5371835.122      -1611564.187
10 0 59354  44160.000000  0      -3995221.862       5332616.722      -2045532.268
10 0 59354  44220.000000  0      -3835274.593       5269565.210      -2470804.425
10 0 59354  44280.000000  0      -3659801.651       5182812.994      -2885575.671
10 0 59354  44340.000000  0      -3469754.517       5072601.270      -3288087.191
10 0 59354  44400.000000  0      -3266143.586       4939279.269      -3676633.886
10 0 59354  44460.000000  0      -3050032.747       4783303.007      -4049571.638
10 0 59354  44520.000000  0      -2822533.754       4605233.518      -4405324.296
10 0 59354  44580.000000  0      -2584800.399       4405734.564      -4742390.204
10 0 59354  44640.000000  0      -2338022.642       4185569.993      -5059348.383
10 0 59354  44700.000000  0      -2083420.616       3945600.607      -5354864.431
10 0 59354  44760.000000  0      -1822238.541       3686780.546      -5627695.995
10 0 59354  44820.000000  0      -1555738.592       3410153.241      -5876697.812
10 0 59354  44880.000000  0      -1285194.759       3116846.946      -6100826.299
10 0 59354  44940.000000  0      -1011886.724       2808069.900      -6299143.647
10 0 59354  45000.000000  0       -737093.815       2485105.154      -6470821.417
10 0 59354  45060.000000  0       -462089.060       2149305.173      -6615143.693
10 0 59354  45120.000000  0       -188133.351       1802086.054      -6731509.827
10 0 59354  45180.000000  0         83530.217       1444921.494      -6819436.665
10 0 59354  45240.000000  0        351681.907       1079336.547      -6878560.375
10 0 59354  45300.000000  0        615130.772        706901.167      -6908637.808
10 0 59354  45360.000000  0        872719.904        329223.474      -6909547.379
10 0 59354  45420.000000  0       1123331.435        -52057.181      -6881289.414
10 0 59354  45480.000000  0       1365891.290       -435277.253      -6823986.013
10 0 59354  45540.000000  0       1599373.695       -818756.125      -6737880.481
10 0 59354  45600.000000  0       1822805.422      -1200803.359      -6623336.381
10 0 59354  45660.000000  0       2035269.835      -1579726.055      -6480836.098
10 0 59354  45720.000000  0       2235910.642      -1953836.220      -6310978.892
10 0 59354  45780.000000  0       2423935.284      -2321458.161      -6114478.604
10 0 59354  45840.000000  0       2598618.102      -2680935.979      -5892160.968
10 0 59354  45900.000000  0       2759303.220      -3030641.103      -5644960.394
10 0 59354  45960.000000  0       2905407.083      -3368979.769      -5373916.195
10 0 59354  46020.000000  0       3036420.589      -3694400.340      -5080168.326
10 0 59354  46080.000000  0       3151910.841      -4005400.410      -4764952.749
10 0 59354  46140.000000  0       3251522.550      -4300533.780      -4429596.456
10 0 59354  46200.000000  0       3334979.094      -4578417.286      -4075512.131
10 0 59354  46260.000000  0       3402083.251      -4837737.418      -3704192.408
10 0 59354  46320.000000  0       3452717.563      -5077256.754      -3317203.757
10 0 59354  46380.000000  0       3486844.267      -5295820.131      -2916179.926
10 0 59354  46440.000000  0       3504504.805      -5492360.365      -2502815.017
10 0 59354  46500.000000  0       3505818.992      -5665903.588      -2078856.323
10 0 59354  46560.000000  0       3490983.800      -5815574.227      -1646096.929
10 0 59354  46620.000000  0       3460271.752      -5940599.591      -1206368.026
10 0 59354  46680.000000  0       3414028.938      -6040313.963       -761530.988
10 0 59354  46740.000000  0       3352672.623      -6114162.138       -313469.284
10 0 59354  46800.000000  0       3276688.474      -6161702.434        135919.668
10 0 59354  46860.000000  0       3186627.513      -6182609.183        584732.644
10 0 59354  46920.000000  0       3083102.801      -6176674.781       1031068.867
10 0 59354  46980.000000  0       2966785.791      -6143811.113       1473038.366
10 0 59354  47040.000000  0       2838402.346      -6084050.251       1908770.225
10 0 59354  47100.000000  0       2698728.529      -5997544.645       2336420.609
10 0 59354  47160.000000  0       2548586.162      -5884566.781       2754180.728
10 0 59354  47220.000000  0       2388838.190      -5745508.158       3160284.521
10 0 59354  47280.000000  0       2220383.950      -5580877.869       3553016.135
10 0 59354  47340.000000  0       2044154.264      -5391300.599       3930717.235
10 0 59354  47400.000000  0       1861106.406      -5177514.039       4291794.006
10 0 59354  47460.000000  0       1672219.029      -4940365.759       4634723.779
10 0 59354  47520.000000  0       1478487.107      -4680809.662       4958061.344
10 0 59354  47580.000000  0       1280916.792      -4399901.990       5260445.005
10 0 59354  47640.000000  0       1080520.215      -4098796.736       5540602.219
10 0 59354  47700.000000  0        878310.372      -3778740.628       5797354.709
10 0 59354  47760.000000  0        675296.081      -3441067.767       6029623.152
10 0 59354  47820.000000  0        472477.048      -3087193.938       6236431.437
10 0 59354  47880.000000  0        270839.040      -2718610.601       6416910.530
10 0 59354  47940.000000  0         71349.193      -2336878.546       6570301.886
10 0 59354  48000.000000  0       -125048.505      -1943621.297       6695960.403
10 0 59354  48060.000000  0       -317437.596      -1540518.293       6793357.016
10 0 59354  48120.000000  0       -504933.373      -1129297.731       6862080.842
10 0 59354  48180.000000  0       -686686.849       -711729.190       6901840.805
10 0 59354  48240.000000  0       -861888.558       -289616.101       6912466.827
10 0 59354  48300.000000  0      -1029772.130        135211.952       6893910.519
10 0 59354  48360.000000  0      -1189617.614        560907.063       6846245.436
10 0 59354  48420.000000  0      -1340754.531        985610.946       6769666.834
10 0 59354  48480.000000  0      -1482564.677       1407462.927       6664490.998
10 0 59354  48540.000000  0      -1614484.684       1824608.017       6531154.113
10 0 59354  48600.000000  0      -1736008.274       2235205.009       6370210.641
10 0 59354  48660.000000  0      -1846688.231       2637434.575       6182331.260
10 0 59354  48720.000000  0      -1946138.088       3029507.360       5968300.290
10 0 59354  48780.000000  0      -2034033.466       3409671.927       5729012.680
10 0 59354  48840.000000  0      -2110113.142       3776222.678       5465470.636
10 0 59354  48900.000000  0      -2174179.841       4127507.695       5178779.707
10 0 59354  48960.000000  0      -2226100.671       4461936.379       4870144.383
10 0 59354  49020.000000  0      -2265807.217       4777986.882       4540863.264
10 0 59354  49080.000000  0      -2293295.327       5074213.303       4192323.816
10 0 59354  49140.000000  0      -2308624.579       5349252.624       3825996.670
10 0 59354  49200.000000  0      -2311917.401       5601831.286       3443429.483
10 0 59354  49260.000000  0      -2303357.868       5830771.354       3046240.450
10 0 59354  49320.000000  0      -2283190.183       6034996.336       2636111.501
10 0 59354  49380.000000  0      -2251716.851       6213536.582       2214781.138
10 0 59354  49440.000000  0      -2209296.516       6365534.194       1784036.947
10 0 59354  49500.000000  0      -2156341.498       6490247.399       1345707.880
10 0 59354  49560.000000  0      -2093315.067       6587054.425        901656.326
10 0 59354  49620.000000  0      -2020728.435       6655456.798        453769.953
10 0 59354  49680.000000  0      -1939137.511       6695082.031          3953.440
10 0 59354  49740.000000  0      -1849139.447       6705685.759       -445879.899
10 0 59354  49800.000000  0      -1751368.962       6687153.274       -893816.628
10 0 59354  49860.000000  0      -1646494.408       6639500.337      -1337951.811
10 0 59354  49920.000000  0      -1535213.658       6562873.123      -1776397.484
10 0 59354  49980.000000  0      -1418249.953       6457547.618      -2207290.874
10 0 59354  50040.000000  0      -1296347.600       6323928.398      -2628802.526
10 0 59354  50100.000000  0      -1170267.622       6162546.838      -3039144.166
10 0 59354  50160.000000  0      -1040783.350       5974058.783      -3436576.410
10 0 59354  50220.000000  0       -908676.010       5759241.593      -3819416.267
10 0 59354  50280.000000  0       -774730.314       5518990.570      -4186044.345
10 0 59354  50340.000000  0       -639730.068       5254314.850      -4534911.655
99
